[{"OBJECT_NAME":"GPS BIIF-7  (PRN 09)","OBJECT_ID":"2014-045A","EPOCH":"2026-01-28T22:39:26.973216","MEAN_MOTION":2.00575432,"ECCENTRICITY":0.00314011,"INCLINATION":55.2574,"RA_OF_ASC_NODE":94.0141,"ARG_OF_PERICENTER":120.4917,"MEAN_ANOMALY":239.8704,"EPHEMERIS_TYPE":0,"CLASSIFICATION_TYPE":"U","NORAD_CAT_ID":40105,"ELEMENT_SET_NO":999,"REV_AT_EPOCH":8328,"BSTAR":0,"MEAN_MOTION_DOT":-3.1e-7,"MEAN_MOTION_DDOT":0},{"OBJECT_NAME":"GPS BIIF-8  (PRN 03)","OBJECT_ID":"2014-068A","EPOCH":"2026-02-01T07:32:18.725568","MEAN_MOTION":2.00567806,"ECCENTRICITY":0.00615982,"INCLINATION":56.8964,"RA_OF_ASC_NODE":36.1908,"ARG_OF_PERICENTER":68.2269,"MEAN_ANOMALY":292.4584,"EPHEMERIS_TYPE":0,"CLASSIFICATION_TYPE":"U","NORAD_CAT_ID":40294,"ELEMENT_SET_NO":999,"REV_AT_EPOCH":8248,"BSTAR":0,"MEAN_MOTION_DOT":-5.4e-7,"MEAN_MOTION_DDOT":0},{"OBJECT_NAME":"GPS BIIF-9  (PRN 26)","OBJECT_ID":"2015-013A","EPOCH":"2026-02-01T10:39:58.237056","MEAN_MOTION":2.00559429,"ECCENTRICITY":0.01084615,"INCLINATION":53.1916,"RA_OF_ASC_NODE":209.7899,"ARG_OF_PERICENTER":39.4647,"MEAN_ANOMALY":321.3062,"EPHEMERIS_TYPE":0,"CLASSIFICATION_TYPE":"U","NORAD_CAT_ID":40534,"ELEMENT_SET_NO":999,"REV_AT_EPOCH":7910,"BSTAR":0,"MEAN_MOTION_DOT":3.7e-7,"MEAN_MOTION_DDOT":0},{"OBJECT_NAME":"GPS BIIF-10 (PRN 08)","OBJECT_ID":"2015-033A","EPOCH":"2026-02-01T14:31:45.589728","MEAN_MOTION":2.00563026,"ECCENTRICITY":0.01135865,"INCLINATION":54.0879,"RA_OF_ASC_NODE":272.6763,"ARG_OF_PERICENTER":28.2143,"MEAN_ANOMALY":332.4728,"EPHEMERIS_TYPE":0,"CLASSIFICATION_TYPE":"U","NORAD_CAT_ID":40730,"ELEMENT_SET_NO":999,"REV_AT_EPOCH":7727,"BSTAR":0,"MEAN_MOTION_DOT":7.0e-8,"MEAN_MOTION_DDOT":0},{"OBJECT_NAME":"GPS BIIF-11 (PRN 10)","OBJECT_ID":"2015-062A","EPOCH":"2026-02-01T15:56:56.146272","MEAN_MOTION":2.00567007,"ECCENTRICITY":0.01115218,"INCLINATION":56.8703,"RA_OF_ASC_NODE":36.0336,"ARG_OF_PERICENTER":231.112,"MEAN_ANOMALY":127.9151,"EPHEMERIS_TYPE":0,"CLASSIFICATION_TYPE":"U","NORAD_CAT_ID":41019,"ELEMENT_SET_NO":999,"REV_AT_EPOCH":7511,"BSTAR":0,"MEAN_MOTION_DOT":-5.6e-7,"MEAN_MOTION_DDOT":0},{"OBJECT_NAME":"GPS BIIF-12 (PRN 32)","OBJECT_ID":"2016-007A","EPOCH":"2026-02-01T06:00:06.734880","MEAN_MOTION":2.00558177,"ECCENTRICITY":0.00944465,"INCLINATION":55.435,"RA_OF_ASC_NODE":94.8505,"ARG_OF_PERICENTER":245.0741,"MEAN_ANOMALY":114.0056,"EPHEMERIS_TYPE":0,"CLASSIFICATION_TYPE":"U","NORAD_CAT_ID":41328,"ELEMENT_SET_NO":999,"REV_AT_EPOCH":7311,"BSTAR":0,"MEAN_MOTION_DOT":-1.3e-7,"MEAN_MOTION_DDOT":0},{"OBJECT_NAME":"GPS BIII-1  (PRN 04)","OBJECT_ID":"2018-109A","EPOCH":"2026-02-01T15:17:35.228256","MEAN_MOTION":2.0055522,"ECCENTRICITY":0.00377858,"INCLINATION":55.5954,"RA_OF_ASC_NODE":97.5354,"ARG_OF_PERICENTER":197.2047,"MEAN_ANOMALY":335.0835,"EPHEMERIS_TYPE":0,"CLASSIFICATION_TYPE":"U","NORAD_CAT_ID":43873,"ELEMENT_SET_NO":999,"REV_AT_EPOCH":5235,"BSTAR":0,"MEAN_MOTION_DOT":-1.1e-7,"MEAN_MOTION_DDOT":0},{"OBJECT_NAME":"GPS BIII-2  (PRN 18)","OBJECT_ID":"2019-056A","EPOCH":"2026-02-01T06:44:50.204832","MEAN_MOTION":2.00567362,"ECCENTRICITY":0.00577583,"INCLINATION":55.6997,"RA_OF_ASC_NODE":336.546,"ARG_OF_PERICENTER":198.5946,"MEAN_ANOMALY":335.6694,"EPHEMERIS_TYPE":0,"CLASSIFICATION_TYPE":"U","NORAD_CAT_ID":44506,"ELEMENT_SET_NO":999,"REV_AT_EPOCH":4734,"BSTAR":0,"MEAN_MOTION_DOT":-1.0e-6,"MEAN_MOTION_DDOT":0},{"OBJECT_NAME":"GPS BIII-3  (PRN 23)","OBJECT_ID":"2020-041A","EPOCH":"2026-01-30T21:02:56.891040","MEAN_MOTION":2.00560793,"ECCENTRICITY":0.0061076,"INCLINATION":56.5828,"RA_OF_ASC_NODE":34.2725,"ARG_OF_PERICENTER":204.8277,"MEAN_ANOMALY":338.6334,"EPHEMERIS_TYPE":0,"CLASSIFICATION_TYPE":"U","NORAD_CAT_ID":45854,"ELEMENT_SET_NO":999,"REV_AT_EPOCH":4128,"BSTAR":0,"MEAN_MOTION_DOT":-4.9e-7,"MEAN_MOTION_DDOT":0},{"OBJECT_NAME":"GPS BIII-4  (PRN 14)","OBJECT_ID":"2020-078A","EPOCH":"2026-02-01T21:23:28.369248","MEAN_MOTION":2.00565922,"ECCENTRICITY":0.00666996,"INCLINATION":54.0074,"RA_OF_ASC_NODE":216.2632,"ARG_OF_PERICENTER":203.6744,"MEAN_ANOMALY":326.5432,"EPHEMERIS_TYPE":0,"CLASSIFICATION_TYPE":"U","NORAD_CAT_ID":46826,"ELEMENT_SET_NO":999,"REV_AT_EPOCH":3879,"BSTAR":0,"MEAN_MOTION_DOT":3.8e-7,"MEAN_MOTION_DDOT":0},{"OBJECT_NAME":"GPS BIII-5  (PRN 11)","OBJECT_ID":"2021-054A","EPOCH":"2026-02-01T21:55:37.360704","MEAN_MOTION":2.00577005,"ECCENTRICITY":0.00241589,"INCLINATION":55.2357,"RA_OF_ASC_NODE":337.8991,"ARG_OF_PERICENTER":232.6376,"MEAN_ANOMALY":136.9947,"EPHEMERIS_TYPE":0,"CLASSIFICATION_TYPE":"U","NORAD_CAT_ID":48859,"ELEMENT_SET_NO":999,"REV_AT_EPOCH":3404,"BSTAR":0,"MEAN_MOTION_DOT":-1.02e-6,"MEAN_MOTION_DDOT":0},{"OBJECT_NAME":"GPS BIII-6  (PRN 28)","OBJECT_ID":"2023-009A","EPOCH":"2026-02-01T02:19:52.812192","MEAN_MOTION":2.00551428,"ECCENTRICITY":0.00041553,"INCLINATION":55.1088,"RA_OF_ASC_NODE":153.8677,"ARG_OF_PERICENTER":341.1066,"MEAN_ANOMALY":200.9446,"EPHEMERIS_TYPE":0,"CLASSIFICATION_TYPE":"U","NORAD_CAT_ID":55268,"ELEMENT_SET_NO":999,"REV_AT_EPOCH":2251,"BSTAR":0,"MEAN_MOTION_DOT":-1.5e-7,"MEAN_MOTION_DDOT":0},{"OBJECT_NAME":"GPS BIII-7  (PRN 01)","OBJECT_ID":"2024-242A","EPOCH":"2026-02-01T11:30:38.583072","MEAN_MOTION":2.00568761,"ECCENTRICITY":0.00146457,"INCLINATION":54.9051,"RA_OF_ASC_NODE":339.6849,"ARG_OF_PERICENTER":351.7408,"MEAN_ANOMALY":186.4262,"EPHEMERIS_TYPE":0,"CLASSIFICATION_TYPE":"U","NORAD_CAT_ID":62339,"ELEMENT_SET_NO":999,"REV_AT_EPOCH":853,"BSTAR":0,"MEAN_MOTION_DOT":-1.03e-6,"MEAN_MOTION_DDOT":0},{"OBJECT_NAME":"GPS BIII-8  (PRN 21)","OBJECT_ID":"2025-116A","EPOCH":"2026-01-31T23:24:47.088864","MEAN_MOTION":2.00554886,"ECCENTRICITY":0.00076195,"INCLINATION":55.1439,"RA_OF_ASC_NODE":36.6125,"ARG_OF_PERICENTER":319.0641,"MEAN_ANOMALY":42.5108,"EPHEMERIS_TYPE":0,"CLASSIFICATION_TYPE":"U","NORAD_CAT_ID":64202,"ELEMENT_SET_NO":999,"REV_AT_EPOCH":514,"BSTAR":0,"MEAN_MOTION_DOT":-5.6e-7,"MEAN_MOTION_DDOT":0},{"OBJECT_NAME":"GPS BIII-9 (PRN 20)","OBJECT_ID":"2026-017A","EPOCH":"2026-01-28T18:17:22.544736","MEAN_MOTION":4.0337675,"ECCENTRICITY":0.59408377,"INCLINATION":55.0007,"RA_OF_ASC_NODE":99.1396,"ARG_OF_PERICENTER":270.1415,"MEAN_ANOMALY":26.1406,"EPHEMERIS_TYPE":0,"CLASSIFICATION_TYPE":"U","NORAD_CAT_ID":67588,"ELEMENT_SET_NO":999,"REV_AT_EPOCH":4,"BSTAR":0.00032093292,"MEAN_MOTION_DOT":3.46e-6,"MEAN_MOTION_DDOT":0}]
