NAVSTAR 71 (USA 256)    
1 40105U 14045A   26028.94406219 -.00000031  00000+0  00000+0 0  9990
2 40105  55.2574  94.0141 0031401 120.4917 239.8704  2.00575432 83284
NAVSTAR 72 (USA 258)    
1 40294U 14068A   26032.31410562 -.00000054  00000+0  00000+0 0  9991
2 40294  56.8964  36.1908 0061598  68.2269 292.4584  2.00567806 82488
NAVSTAR 73 (USA 260)    
1 40534U 15013A   26032.44442404  .00000037  00000+0  00000+0 0  9993
2 40534  53.1916 209.7899 0108461  39.4647 321.3062  2.00559429 79100
NAVSTAR 74 (USA 262)    
1 40730U 15033A   26032.60538877  .00000007  00000+0  00000+0 0  9998
2 40730  54.0879 272.6763 0113586  28.2143 332.4728  2.00563026 77272
NAVSTAR 75 (USA 265)    
1 41019U 15062A   26032.66453873 -.00000056  00000+0  00000+0 0  9994
2 41019  56.8703  36.0336 0111521 231.1120 127.9151  2.00567007 75115
NAVSTAR 76 (USA 266)    
1 41328U 16007A   26032.25007795 -.00000013  00000+0  00000+0 0  9993
2 41328  55.4350  94.8505 0094446 245.0741 114.0056  2.00558177 73117
NAVSTAR 77 (USA 289)    
1 43873U 18109A   26032.63721329 -.00000011  00000+0  00000+0 0  9991
2 43873  55.5954  97.5354 0037785 197.2047 335.0835  2.00555220 52356
NAVSTAR 78 (USA 293)    
1 44506U 19056A   26032.28113663 -.00000100  00000+0  00000+0 0  9993
2 44506  55.6997 336.5460 0057758 198.5946 335.6694  2.00567362 47348
NAVSTAR 79 (USA 304)    
1 45854U 20041A   26030.87704735 -.00000049  00000+0  00000+0 0  9997
2 45854  56.5828  34.2725 0061076 204.8277 338.6334  2.00560793 41282
NAVSTAR 80 (USA 309)    
1 46826U 20078A   26032.89130057  .00000038  00000+0  00000+0 0  9998
2 46826  54.0074 216.2632 0066699 203.6744 326.5432  2.00565922 38795
NAVSTAR 81 (USA 319)    
1 48859U 21054A   26032.91362686 -.00000102  00000+0  00000+0 0  9992
2 48859  55.2357 337.8991 0024158 232.6376 136.9947  2.00577005 34048
NAVSTAR 82 (USA 343)    
1 55268U 23009A   26032.09713903 -.00000015  00000+0  00000+0 0  9990
2 55268  55.1088 153.8677 0004155 341.1066 200.9446  2.00551428 22510
NAVSTAR 83 (USA 440)    
1 62339U 24242A   26032.47961323 -.00000103  00000+0  00000+0 0  9998
2 62339  54.9051 339.6849 0014645 351.7408 186.4262  2.00568761  8539
NAVSTAR 84 (USA 545)    
1 64202U 25116A   26031.97554501 -.00000056  00000+0  00000+0 0  9997
2 64202  55.1439  36.6125 0007619 319.0641  42.5108  2.00554886  5141
NAVSTAR 85 (USA 581)    
1 67588U 26017A   26028.76206649  .00000346  00000+0  32093-3 0  9990
2 67588  55.0007  99.1396 5940837 270.1415  26.1406  4.03376750    44
